start=new Date('2022-01-17T00:00:00.000Z').valueOf();
sats=[{"RA_OF_ASC_NODE":"187.8738","MEAN_ELEMENT_THEORY":"SGP4","REF_FRAME":"TEME","LAUNCH_DATE":"2020-06-13","RCS_SIZE":"LARGE","APOAPSIS":"548.728","TLE_LINE2":"2 45740  53.0541 187.8738 0002221  79.9860 280.1379 15.06407728 89296","DECAY_DATE":null,"MEAN_MOTION_DOT":"-0.00000535","MEAN_MOTION_DDOT":"0.0000000000000","EPOCH":"2022-01-16T21:12:53.590176","REV_AT_EPOCH":"8929","NORAD_CAT_ID":"45740","OBJECT_ID":"2020-038L","BSTAR":"-0.00001698100000","ECCENTRICITY":"0.00022210","PERIOD":"95.592","MEAN_MOTION":"15.06407728","SEMIMAJOR_AXIS":"6925.325","CLASSIFICATION_TYPE":"U","GP_ID":"193993403","OBJECT_NAME":"STARLINK-1479","CENTER_NAME":"EARTH","PERIAPSIS":"545.652","TIME_SYSTEM":"UTC","ELEMENT_SET_NO":"999","ARG_OF_PERICENTER":"79.9860","TLE_LINE1":"1 45740U 20038L   22016.88395359 -.00000535  00000-0 -16981-4 0  9998","INCLINATION":"53.0541","MEAN_ANOMALY":"280.1379","OBJECT_TYPE":"PAYLOAD","COUNTRY_CODE":"US","FILE":"3274942","EPHEMERIS_TYPE":"0","SITE":"AFETR"},{"ARG_OF_PERICENTER":"77.9452","ELEMENT_SET_NO":"999","PERIAPSIS":"545.577","TIME_SYSTEM":"UTC","FILE":"3274671","SITE":"AFETR","EPHEMERIS_TYPE":"0","OBJECT_TYPE":"PAYLOAD","MEAN_ANOMALY":"282.1795","COUNTRY_CODE":"US","INCLINATION":"53.0543","TLE_LINE1":"1 45741U 20038M   22016.25735026  .00002050  00000-0  15647-3 0  9998","DECAY_DATE":null,"APOAPSIS":"548.767","TLE_LINE2":"2 45741  53.0543 190.6899 0002303  77.9452 282.1795 15.06413650 88097","RCS_SIZE":"LARGE","LAUNCH_DATE":"2020-06-13","REF_FRAME":"TEME","RA_OF_ASC_NODE":"190.6899","MEAN_ELEMENT_THEORY":"SGP4","CENTER_NAME":"EARTH","GP_ID":"193982848","OBJECT_NAME":"STARLINK-1480","CLASSIFICATION_TYPE":"U","BSTAR":"0.00015647000000","ECCENTRICITY":"0.00023030","OBJECT_ID":"2020-038M","SEMIMAJOR_AXIS":"6925.307","PERIOD":"95.591","MEAN_MOTION":"15.06413650","REV_AT_EPOCH":"8809","NORAD_CAT_ID":"45741","EPOCH":"2022-01-16T06:10:35.062464","MEAN_MOTION_DOT":"0.00002050","MEAN_MOTION_DDOT":"0.0000000000000"},{"INCLINATION":"53.0525","TLE_LINE1":"1 45742U 20038N   22016.18363658 -.00000458  00000-0 -11856-4 0  9990","FILE":"3274671","EPHEMERIS_TYPE":"0","SITE":"AFETR","MEAN_ANOMALY":"284.1002","OBJECT_TYPE":"PAYLOAD","COUNTRY_CODE":"US","ELEMENT_SET_NO":"999","TIME_SYSTEM":"UTC","PERIAPSIS":"545.710","ARG_OF_PERICENTER":"76.0228","REV_AT_EPOCH":"8806","NORAD_CAT_ID":"45742","EPOCH":"2022-01-16T04:24:26.200512","MEAN_MOTION_DDOT":"0.0000000000000","MEAN_MOTION_DOT":"-0.00000458","CENTER_NAME":"EARTH","GP_ID":"193983098","OBJECT_NAME":"STARLINK-1481","CLASSIFICATION_TYPE":"U","BSTAR":"-0.00001185600000","OBJECT_ID":"2020-038N","ECCENTRICITY":"0.00021690","PERIOD":"95.592","SEMIMAJOR_AXIS":"6925.347","MEAN_MOTION":"15.06400359","LAUNCH_DATE":"2020-06-13","REF_FRAME":"TEME","RA_OF_ASC_NODE":"191.0080","MEAN_ELEMENT_THEORY":"SGP4","DECAY_DATE":null,"APOAPSIS":"548.715","TLE_LINE2":"2 45742  53.0525 191.0080 0002169  76.0228 284.1002 15.06400359 88068","RCS_SIZE":"LARGE"},{"ARG_OF_PERICENTER":"61.8440","ELEMENT_SET_NO":"999","TIME_SYSTEM":"UTC","PERIAPSIS":"543.430","COUNTRY_CODE":"US","OBJECT_TYPE":"PAYLOAD","MEAN_ANOMALY":"298.2734","FILE":"3274671","SITE":"AFETR","EPHEMERIS_TYPE":"0","INCLINATION":"53.0543","TLE_LINE1":"1 45743U 20038P   22016.47366449  .00001458  00000-0  11437-3 0  9997","RCS_SIZE":"LARGE","DECAY_DATE":null,"APOAPSIS":"545.968","TLE_LINE2":"2 45743  53.0543 189.6232 0001833  61.8440 298.2734 15.07220775 88113","MEAN_ELEMENT_THEORY":"SGP4","RA_OF_ASC_NODE":"189.6232","LAUNCH_DATE":"2020-06-13","REF_FRAME":"TEME","CLASSIFICATION_TYPE":"U","PERIOD":"95.540","SEMIMAJOR_AXIS":"6922.834","MEAN_MOTION":"15.07220775","OBJECT_ID":"2020-038P","BSTAR":"0.00011437000000","ECCENTRICITY":"0.00018330","CENTER_NAME":"EARTH","OBJECT_NAME":"STARLINK-1483","GP_ID":"193983350","EPOCH":"2022-01-16T11:22:04.611936","MEAN_MOTION_DOT":"0.00001458","MEAN_MOTION_DDOT":"0.0000000000000","NORAD_CAT_ID":"45743","REV_AT_EPOCH":"8811"},{"CLASSIFICATION_TYPE":"U","PERIOD":"95.592","SEMIMAJOR_AXIS":"6925.344","MEAN_MOTION":"15.06401581","BSTAR":"-0.00003463500000","ECCENTRICITY":"0.00021180","OBJECT_ID":"2020-038Q","CENTER_NAME":"EARTH","OBJECT_NAME":"STARLINK-1500","GP_ID":"193984097","EPOCH":"2022-01-16T12:06:12.311424","MEAN_MOTION_DOT":"-0.00000798","MEAN_MOTION_DDOT":"0.0000000000000","NORAD_CAT_ID":"45744","REV_AT_EPOCH":"8812","RCS_SIZE":"LARGE","DECAY_DATE":null,"TLE_LINE2":"2 45744  53.0506 189.5750 0002118  77.9686 282.1541 15.06401581 88128","APOAPSIS":"548.676","MEAN_ELEMENT_THEORY":"SGP4","RA_OF_ASC_NODE":"189.5750","LAUNCH_DATE":"2020-06-13","REF_FRAME":"TEME","COUNTRY_CODE":"US","OBJECT_TYPE":"PAYLOAD","MEAN_ANOMALY":"282.1541","FILE":"3274671","EPHEMERIS_TYPE":"0","SITE":"AFETR","INCLINATION":"53.0506","TLE_LINE1":"1 45744U 20038Q   22016.50430916 -.00000798  00000-0 -34635-4 0  9997","ARG_OF_PERICENTER":"77.9686","ELEMENT_SET_NO":"999","TIME_SYSTEM":"UTC","PERIAPSIS":"545.742"},{"FILE":"3274671","EPHEMERIS_TYPE":"0","SITE":"AFETR","OBJECT_TYPE":"PAYLOAD","MEAN_ANOMALY":"282.2954","COUNTRY_CODE":"US","INCLINATION":"53.0544","TLE_LINE1":"1 45745U 20038R   22016.49324389  .00002068  00000-0  15768-3 0  9997","ARG_OF_PERICENTER":"77.8291","ELEMENT_SET_NO":"999","PERIAPSIS":"545.598","TIME_SYSTEM":"UTC","CENTER_NAME":"EARTH","GP_ID":"193982349","OBJECT_NAME":"STARLINK-1503","CLASSIFICATION_TYPE":"U","BSTAR":"0.00015768000000","OBJECT_ID":"2020-038R","ECCENTRICITY":"0.00022870","PERIOD":"95.591","SEMIMAJOR_AXIS":"6925.316","MEAN_MOTION":"15.06410465","REV_AT_EPOCH":"8811","NORAD_CAT_ID":"45745","EPOCH":"2022-01-16T11:50:16.272096","MEAN_MOTION_DOT":"0.00002068","MEAN_MOTION_DDOT":"0.0000000000000","DECAY_DATE":null,"APOAPSIS":"548.765","TLE_LINE2":"2 45745  53.0544 189.6299 0002287  77.8291 282.2954 15.06410465 88117","RCS_SIZE":"LARGE","LAUNCH_DATE":"2020-06-13","REF_FRAME":"TEME","RA_OF_ASC_NODE":"189.6299","MEAN_ELEMENT_THEORY":"SGP4"},{"INCLINATION":"53.0528","TLE_LINE1":"1 45746U 20038S   22016.50800498  .00001472  00000-0  11772-3 0  9999","COUNTRY_CODE":"US","OBJECT_TYPE":"PAYLOAD","MEAN_ANOMALY":"282.2841","EPHEMERIS_TYPE":"0","FILE":"3274671","SITE":"AFETR","ELEMENT_SET_NO":"999","TIME_SYSTEM":"UTC","PERIAPSIS":"545.969","ARG_OF_PERICENTER":"77.8347","EPOCH":"2022-01-16T12:11:31.630272","MEAN_MOTION_DOT":"0.00001472","MEAN_MOTION_DDOT":"0.0000000000000","NORAD_CAT_ID":"45746","REV_AT_EPOCH":"8811","CLASSIFICATION_TYPE":"U","SEMIMAJOR_AXIS":"6925.339","PERIOD":"95.592","MEAN_MOTION":"15.06403181","BSTAR":"0.00011772000000","ECCENTRICITY":"0.00017830","OBJECT_ID":"2020-038S","CENTER_NAME":"EARTH","OBJECT_NAME":"STARLINK-1504","GP_ID":"193982599","MEAN_ELEMENT_THEORY":"SGP4","RA_OF_ASC_NODE":"189.5506","LAUNCH_DATE":"2020-06-13","REF_FRAME":"TEME","RCS_SIZE":"LARGE","DECAY_DATE":null,"TLE_LINE2":"2 45746  53.0528 189.5506 0001783  77.8347 282.2841 15.06403181 88114","APOAPSIS":"548.439"},{"REF_FRAME":"TEME","LAUNCH_DATE":"2020-06-13","MEAN_ELEMENT_THEORY":"SGP4","RA_OF_ASC_NODE":"188.3478","APOAPSIS":"548.756","TLE_LINE2":"2 45747  53.0538 188.3478 0002244  74.0211 286.1025 15.06403885 89088","DECAY_DATE":null,"RCS_SIZE":"LARGE","NORAD_CAT_ID":"45747","REV_AT_EPOCH":"8908","MEAN_MOTION_DDOT":"0.0000000000000","MEAN_MOTION_DOT":"0.00001425","EPOCH":"2022-01-16T18:38:58.644096","OBJECT_NAME":"STARLINK-1506","GP_ID":"193990166","CENTER_NAME":"EARTH","MEAN_MOTION":"15.06403885","PERIOD":"95.592","SEMIMAJOR_AXIS":"6925.337","BSTAR":"0.00011452000000","OBJECT_ID":"2020-038T","ECCENTRICITY":"0.00022440","CLASSIFICATION_TYPE":"U","TIME_SYSTEM":"UTC","PERIAPSIS":"545.648","ELEMENT_SET_NO":"999","ARG_OF_PERICENTER":"74.0211","TLE_LINE1":"1 45747U 20038T   22016.77706764  .00001425  00000-0  11452-3 0  9993","INCLINATION":"53.0538","EPHEMERIS_TYPE":"0","FILE":"3274786","SITE":"AFETR","COUNTRY_CODE":"US","MEAN_ANOMALY":"286.1025","OBJECT_TYPE":"PAYLOAD"},{"CENTER_NAME":"EARTH","GP_ID":"193983599","OBJECT_NAME":"STARLINK-1507","CLASSIFICATION_TYPE":"U","BSTAR":"0.00015770000000","OBJECT_ID":"2020-038U","ECCENTRICITY":"0.00021180","PERIOD":"95.592","MEAN_MOTION":"15.06401301","SEMIMAJOR_AXIS":"6925.345","NORAD_CAT_ID":"45748","REV_AT_EPOCH":"8811","EPOCH":"2022-01-16T11:59:32.473824","MEAN_MOTION_DOT":"0.00002068","MEAN_MOTION_DDOT":"0.0000000000000","DECAY_DATE":null,"APOAPSIS":"548.676","TLE_LINE2":"2 45748  53.0511 189.6138 0002118  79.1732 280.9496 15.06401301 88119","RCS_SIZE":"LARGE","LAUNCH_DATE":"2020-06-13","REF_FRAME":"TEME","RA_OF_ASC_NODE":"189.6138","MEAN_ELEMENT_THEORY":"SGP4","SITE":"AFETR","FILE":"3274671","EPHEMERIS_TYPE":"0","MEAN_ANOMALY":"280.9496","OBJECT_TYPE":"PAYLOAD","COUNTRY_CODE":"US","INCLINATION":"53.0511","TLE_LINE1":"1 45748U 20038U   22016.49968141  .00002068  00000-0  15770-3 0  9993","ARG_OF_PERICENTER":"79.1732","ELEMENT_SET_NO":"999","TIME_SYSTEM":"UTC","PERIAPSIS":"545.743"},{"RA_OF_ASC_NODE":"169.1740","MEAN_ELEMENT_THEORY":"SGP4","REF_FRAME":"TEME","LAUNCH_DATE":"2020-06-13","RCS_SIZE":"LARGE","APOAPSIS":"548.882","TLE_LINE2":"2 45750  53.0535 169.1740 0002472  79.5613 280.5654 15.06414167 88425","DECAY_DATE":null,"MEAN_MOTION_DDOT":"0.0000000000000","MEAN_MOTION_DOT":"0.00000340","EPOCH":"2022-01-16T14:16:13.921248","NORAD_CAT_ID":"45750","REV_AT_EPOCH":"8842","BSTAR":"0.00004172400000","ECCENTRICITY":"0.00024720","OBJECT_ID":"2020-038W","PERIOD":"95.591","SEMIMAJOR_AXIS":"6925.305","MEAN_MOTION":"15.06414167","CLASSIFICATION_TYPE":"U","GP_ID":"193982849","OBJECT_NAME":"STARLINK-1391","CENTER_NAME":"EARTH","TIME_SYSTEM":"UTC","PERIAPSIS":"545.458","ELEMENT_SET_NO":"999","ARG_OF_PERICENTER":"79.5613","TLE_LINE1":"1 45750U 20038W   22016.59460557  .00000340  00000-0  41724-4 0  9995","INCLINATION":"53.0535","MEAN_ANOMALY":"280.5654","OBJECT_TYPE":"PAYLOAD","COUNTRY_CODE":"US","FILE":"3274671","SITE":"AFETR","EPHEMERIS_TYPE":"0"}];
